OBJECT_NAME,OBJECT_ID,EPOCH,MEAN_MOTION,ECCENTRICITY,INCLINATION,RA_OF_ASC_NODE,ARG_OF_PERICENTER,MEAN_ANOMALY,EPHEMERIS_TYPE,CLASSIFICATION_TYPE,NORAD_CAT_ID,ELEMENT_SET_NO,REV_AT_EPOCH,BSTAR,MEAN_MOTION_DOT,MEAN_MOTION_DDOT
SL-14 R/B,1990-018B,2026-07-13T04:54:20.814048,14.82233335,.0017174,82.5219,105.7911,43.0004,317.2549,0,U,20511,999,94117,.23597E-4,.212E-5,0
HST,1990-037B,2026-07-12T12:02:47.954688,15.31043109,.00022697,28.4726,267.5224,77.7190,282.3660,0,U,20580,999,79245,.11416285E-3,.3754E-4,0
SL-16 R/B,1990-046B,2026-07-13T00:47:52.171008,14.15023666,.0012442,70.9983,34.6648,118.1378,242.1003,0,U,20625,999,86612,.11034E-3,.166E-5,0
COSMOS 2084,1990-055A,2026-07-13T05:16:27.862752,15.06219713,.000782,62.7886,267.2310,316.2597,43.7884,0,U,20663,999,95522,.78361E-4,.952E-5,0
SL-6 R/B(2),1990-055D,2026-07-12T23:29:16.377792,15.04082552,.0044788,62.7802,187.6044,8.7150,351.4716,0,U,20666,999,95703,.87444E-4,.1032E-4,0
SL-8 R/B,1990-078B,2026-07-13T04:46:39.768960,14.93532002,.0343874,82.9031,138.1186,310.3368,46.8274,0,U,20775,999,82800,.36079E-3,.12737E-3,0
SL-8 R/B,1991-006B,2026-07-13T02:05:29.537952,13.77508876,.0023538,82.9411,76.7648,46.1489,114.9816,0,U,21088,999,78133,.63857E-4,.79E-6,0
OKEAN-3,1991-039A,2026-07-12T14:19:16.685760,15.05425475,.0012213,82.5139,215.7386,264.5319,95.4515,0,U,21397,999,88382,.10634E-3,.1556E-4,0
COSMOS 2151,1991-042A,2026-07-13T03:13:36.512832,15.00510082,.0012165,82.4979,322.6394,2.5338,357.5946,0,U,21422,999,88200,.51112E-4,.672E-5,0
SL-14 R/B,1991-042B,2026-07-13T03:34:29.976384,14.81917401,.0016798,82.4934,102.5505,183.6324,176.4771,0,U,21423,999,87165,.20366E-4,.185E-5,0
ERS-1,1991-050A,2026-07-13T02:11:06.115200,14.39532110,.0031779,98.7795,215.4215,188.0207,172.0476,0,U,21574,999,83377,.63482E-4,.153E-5,0
ARIANE 40 R/B,1991-050F,2026-07-13T02:55:17.222304,14.42971235,.0004232,98.1863,241.5266,65.9959,294.1674,0,U,21610,999,83708,.51584E-4,.131E-5,0
INTERCOSMOS 25,1991-086A,2026-07-13T00:42:31.824000,12.12239182,.1484464,82.6011,234.1716,206.5995,145.0883,0,U,21819,999,51187,.89799E-4,.466E-5,0
SL-8 R/B,1992-008B,2026-07-12T22:24:33.376032,13.75983338,.0035536,82.9271,174.6446,142.7751,246.3179,0,U,21876,999,72664,.96078E-4,.109E-5,0
SL-8 R/B,1992-020B,2026-07-13T02:43:29.836128,13.75550279,.0028028,82.9286,60.5973,309.6542,204.7125,0,U,21938,999,71837,.20994E-4,.35E-6,0
USA 81,1992-023A,2026-07-12T23:33:55.245888,14.32404579,.0002088,85.0052,59.1167,65.7055,294.4355,0,U,21949,999,11272,.34784E-4,.114E-5,0
COSMOS 2219,1992-076A,2026-07-13T03:37:40.825344,14.14109328,.0018138,71.0614,115.7964,0.6237,359.4905,0,U,22219,999,73611,-.74807E-4,-.19E-5,0
SL-16 R/B,1992-076B,2026-07-13T05:09:45.789120,14.16876632,.001502,71.0005,283.9526,264.6325,120.7702,0,U,22220,999,73961,.13397E-3,.221E-5,0
COSMOS 2221,1992-080A,2026-07-13T00:20:44.058048,14.96600353,.0015575,82.5045,159.0196,126.8362,233.4292,0,U,22236,999,79953,.74399E-4,.876E-5,0
SL-16 R/B,1992-093B,2026-07-13T04:16:28.850880,14.15466459,.0002364,71.0220,100.8298,139.8557,220.2741,0,U,22285,999,73091,-.77414E-4,-.199E-5,0
COSMOS 2228,1992-094A,2026-07-13T05:05:08.103840,14.97672011,.0016196,82.5189,117.1153,236.3565,123.6113,0,U,22286,999,79484,.79634E-4,.961E-5,0
SL-16 R/B,1993-016B,2026-07-12T17:41:05.726976,14.15311733,.0008937,71.0084,312.5439,142.4425,217.7324,0,U,22566,999,71986,.58609E-4,.67E-6,0
COSMOS 2242,1993-024A,2026-07-12T21:58:56.193024,14.96980925,.0014524,82.5198,146.9272,241.0750,118.9016,0,U,22626,999,79912,.79193E-4,.938E-5,0
SL-16 R/B,1993-059B,2026-07-13T04:20:49.106688,14.17249937,.0016546,70.9903,106.4880,11.5390,348.6110,0,U,22803,999,69731,-.91559E-4,-.233E-5,0
ARIANE 40 R/B,1993-061H,2026-07-13T04:21:12.020832,14.32918102,.0009478,98.4808,260.4969,272.3235,87.6864,0,U,22830,999,71207,.44652E-4,.79E-6,0
COSMOS 2278,1994-023A,2026-07-13T04:51:07.418016,14.14393300,.000975,71.0525,272.4963,208.6350,151.4238,0,U,23087,999,66255,-.16571E-4,-.79E-6,0
SL-16 R/B,1994-023B,2026-07-12T21:49:45.132096,14.15023948,.0001446,70.9982,167.9116,137.0066,223.1170,0,U,23088,999,66380,.24176E-4,-.1E-7,0
SL-16 R/B,1994-074B,2026-07-13T01:03:14.999040,14.79523286,.0006985,97.6986,219.6865,160.7187,227.7465,0,U,23343,999,70578,.34439E-4,.208E-5,0
SL-16 R/B,1994-077B,2026-07-13T02:59:56.263200,14.15574600,.0004091,70.9823,88.5951,304.9983,55.0756,0,U,23405,999,63398,-.73168E-4,-.191E-5,0
ARIANE 40+ R/B,1995-021B,2026-07-13T04:14:31.009056,14.39846937,.0007845,98.4401,263.8749,121.6463,264.6723,0,U,23561,999,63730,.52738E-4,.122E-5,0
SL-16 R/B,1995-058B,2026-07-13T05:00:27.245088,14.15508209,.0014603,71.0211,276.7263,285.3211,74.6298,0,U,23705,999,58561,.52218E-4,.54E-6,0
