SL-14 R/B               
1 20511U 90018B   26194.20440757  .00000212  00000+0  23597-4 0  9992
2 20511  82.5219 105.7911 0017174  43.0004 317.2549 14.82233335941170
HST                     
1 20580U 90037B   26193.50194392  .00003754  00000+0  11416-3 0  9992
2 20580  28.4726 267.5224 0002269  77.7190 282.3660 15.31043109792455
SL-16 R/B               
1 20625U 90046B   26194.03324272  .00000166  00000+0  11034-3 0  9993
2 20625  70.9983  34.6648 0012442 118.1378 242.1003 14.15023666866125
COSMOS 2084             
1 20663U 90055A   26194.21976693  .00000952  00000+0  78361-4 0  9995
2 20663  62.7886 267.2310 0007820 316.2597  43.7884 15.06219713955229
SL-6 R/B(2)             
1 20666U 90055D   26193.97866178  .00001032  00000+0  87444-4 0  9998
2 20666  62.7802 187.6044 0044788   8.7150 351.4716 15.04082552957032
SL-8 R/B                
1 20775U 90078B   26194.19907140  .00012737  00000+0  36079-3 0  9995
2 20775  82.9031 138.1186 0343874 310.3368  46.8274 14.93532002828005
SL-8 R/B                
1 21088U 91006B   26194.08714743  .00000079  00000+0  63857-4 0  9999
2 21088  82.9411  76.7648 0023538  46.1489 114.9816 13.77508876781331
OKEAN-3                 
1 21397U 91039A   26193.59672090  .00001556  00000+0  10634-3 0  9996
2 21397  82.5139 215.7386 0012213 264.5319  95.4515 15.05425475883829
COSMOS 2151             
1 21422U 91042A   26194.13445038  .00000672  00000+0  51112-4 0  9995
2 21422  82.4979 322.6394 0012165   2.5338 357.5946 15.00510082882006
SL-14 R/B               
1 21423U 91042B   26194.14895806  .00000185  00000+0  20366-4 0  9995
2 21423  82.4934 102.5505 0016798 183.6324 176.4771 14.81917401871656
ERS-1                   
1 21574U 91050A   26194.09104300  .00000153  00000+0  63482-4 0  9998
2 21574  98.7795 215.4215 0031779 188.0207 172.0476 14.39532110833773
ARIANE 40 R/B           
1 21610U 91050F   26194.12172711  .00000131  00000+0  51584-4 0  9990
2 21610  98.1863 241.5266 0004232  65.9959 294.1674 14.42971235837084
INTERCOSMOS 25          
1 21819U 91086A   26194.02953500  .00000466  00000+0  89799-4 0  9992
2 21819  82.6011 234.1716 1484464 206.5995 145.0883 12.12239182511874
SL-8 R/B                
1 21876U 92008B   26193.93371963  .00000109  00000+0  96078-4 0  9998
2 21876  82.9271 174.6446 0035536 142.7751 246.3179 13.75983338726643
SL-8 R/B                
1 21938U 92020B   26194.11353977  .00000035  00000+0  20994-4 0  9999
2 21938  82.9286  60.5973 0028028 309.6542 204.7125 13.75550279718370
USA 81                  
1 21949U 92023A   26193.98188942  .00000114  00000+0  34784-4 0  9996
2 21949  85.0052  59.1167 0002088  65.7055 294.4355 14.32404579112726
COSMOS 2219             
1 22219U 92076A   26194.15116696 -.00000190  00000+0 -74807-4 0  9998
2 22219  71.0614 115.7964 0018138   0.6237 359.4905 14.14109328736115
SL-16 R/B               
1 22220U 92076B   26194.21511330  .00000221  00000+0  13397-3 0  9990
2 22220  71.0005 283.9526 0015020 264.6325 120.7702 14.16876632739613
COSMOS 2221             
1 22236U 92080A   26194.01439882  .00000876  00000+0  74399-4 0  9997
2 22236  82.5045 159.0196 0015575 126.8362 233.4292 14.96600353799538
SL-16 R/B               
1 22285U 92093B   26194.17811170 -.00000199  00000+0 -77414-4 0  9997
2 22285  71.0220 100.8298 0002364 139.8557 220.2741 14.15466459730917
COSMOS 2228             
1 22286U 92094A   26194.21189935  .00000961  00000+0  79634-4 0  9992
2 22286  82.5189 117.1153 0016196 236.3565 123.6113 14.97672011794844
SL-16 R/B               
1 22566U 93016B   26193.73687184  .00000067  00000+0  58609-4 0  9999
2 22566  71.0084 312.5439 0008937 142.4425 217.7324 14.15311733719865
COSMOS 2242             
1 22626U 93024A   26193.91592816  .00000938  00000+0  79193-4 0  9990
2 22626  82.5198 146.9272 0014524 241.0750 118.9016 14.96980925799126
SL-16 R/B               
1 22803U 93059B   26194.18112392 -.00000233  00000+0 -91559-4 0  9992
2 22803  70.9903 106.4880 0016546  11.5390 348.6110 14.17249937697319
ARIANE 40 R/B           
1 22830U 93061H   26194.18138913  .00000079  00000+0  44652-4 0  9990
2 22830  98.4808 260.4969 0009478 272.3235  87.6864 14.32918102712079
COSMOS 2278             
1 23087U 94023A   26194.20216919 -.00000079  00000+0 -16571-4 0  9991
2 23087  71.0525 272.4963 0009750 208.6350 151.4238 14.14393300662556
SL-16 R/B               
1 23088U 94023B   26193.90955014 -.00000001  00000+0  24176-4 0  9998
2 23088  70.9982 167.9116 0001446 137.0066 223.1170 14.15023948663803
SL-16 R/B               
1 23343U 94074B   26194.04392360  .00000208  00000+0  34439-4 0  9994
2 23343  97.6986 219.6865 0006985 160.7187 227.7465 14.79523286705784
SL-16 R/B               
1 23405U 94077B   26194.12495675 -.00000191  00000+0 -73168-4 0  9993
2 23405  70.9823  88.5951 0004091 304.9983  55.0756 14.15574600633981
ARIANE 40+ R/B          
1 23561U 95021B   26194.17674779  .00000122  00000+0  52738-4 0  9997
2 23561  98.4401 263.8749 0007845 121.6463 264.6723 14.39846937637304
SL-16 R/B               
1 23705U 95058B   26194.20864867  .00000054  00000+0  52218-4 0  9997
2 23705  71.0211 276.7263 0014603 285.3211  74.6298 14.15508209585616
